ONEWEB-0512             
1 54130U 22138T   25296.45666750  .00000079  00000+0  16474-3 0  9992
2 54130  87.9240 352.0787 0001789 110.8075 249.3249 13.19725574145584
ONEWEB-0513             
1 54131U 22138U   25296.56051619  .00000039  00000+0  63810-4 0  9990
2 54131  87.9265 352.0189 0001449 113.6882 246.4404 13.20317626145496
ONEWEB-0514             
1 54132U 22138V   25296.54828007  .00000024  00000+0  28491-4 0  9992
2 54132  87.9253 352.0406 0001861  95.2994 264.8351 13.19724529145614
ONEWEB-0515             
1 54133U 22138W   25296.45465513 -.00000011  00000+0 -58405-4 0  9998
2 54133  87.9208 321.6332 0002655  83.4541 276.6894 13.20771071148054
ONEWEB-0516             
1 54134U 22138X   25296.67464145  .00000064  00000+0  12672-3 0  9994
2 54134  87.9240 352.0402 0001952 101.7927 258.3424 13.19724440145631
ONEWEB-0517             
1 54135U 22138Y   25296.65410336  .00000047  00000+0  84422-4 0  9990
2 54135  87.9260 352.0156 0001586  95.3665 264.7648 13.19723736145636
ONEWEB-0518             
1 54136U 22138Z   25296.67306193  .00000029  00000+0  39915-4 0  9995
2 54136  87.9242 352.0425 0001889 104.0399 256.0944 13.19723754145637
ONEWEB-0519             
1 54137U 22138AA  25296.39506411  .00000068  00000+0  13831-3 0  9991
2 54137  87.9261 352.0587 0001666  97.9371 262.1951 13.19724389145609
